[{"OBJECT_NAME":"STARLINK-34238","OBJECT_ID":"2025-192M","EPOCH":"2026-03-09T17:03:28.927872","MEAN_MOTION":15.30189159,"ECCENTRICITY":0.00011603,"INCLINATION":53.1599,"RA_OF_ASC_NODE":232.5203,"ARG_OF_PERICENTER":100.6787,"MEAN_ANOMALY":259.4344,"EPHEMERIS_TYPE":0,"CLASSIFICATION_TYPE":"U","NORAD_CAT_ID":65415,"ELEMENT_SET_NO":999,"REV_AT_EPOCH":2938,"BSTAR":0.00066904788,"MEAN_MOTION_DOT":0.00019501,"MEAN_MOTION_DDOT":0},{"OBJECT_NAME":"USA 24","OBJECT_ID":"1987-043F","EPOCH":"2026-03-09T22:20:48.799968","MEAN_MOTION":13.84752929,"ECCENTRICITY":0.07971297,"INCLINATION":63.2957,"RA_OF_ASC_NODE":276.5953,"ARG_OF_PERICENTER":102.7417,"MEAN_ANOMALY":266.3854,"EPHEMERIS_TYPE":0,"CLASSIFICATION_TYPE":"U","NORAD_CAT_ID":18010,"ELEMENT_SET_NO":999,"REV_AT_EPOCH":33170,"BSTAR":0.00081528793,"MEAN_MOTION_DOT":0.00014135,"MEAN_MOTION_DDOT":0}]
